[{"OBJECT_NAME":"ALCOMSAT 1","OBJECT_ID":"2017-078A","EPOCH":"2026-04-26T10:01:37.202016","MEAN_MOTION":1.00272552,"ECCENTRICITY":0.0002507,"INCLINATION":0.0209,"RA_OF_ASC_NODE":181.3985,"ARG_OF_PERICENTER":192.6942,"MEAN_ANOMALY":325.9241,"EPHEMERIS_TYPE":0,"CLASSIFICATION_TYPE":"U","NORAD_CAT_ID":43039,"ELEMENT_SET_NO":999,"REV_AT_EPOCH":3077,"BSTAR":0,"MEAN_MOTION_DOT":-1.98e-6,"MEAN_MOTION_DDOT":0},{"OBJECT_NAME":"SBIRS GEO-3 (USA 282)","OBJECT_ID":"2018-009A","EPOCH":"2026-04-26T11:01:38.596800","MEAN_MOTION":1.00272089,"ECCENTRICITY":0.0002237,"INCLINATION":2.152,"RA_OF_ASC_NODE":9.6392,"ARG_OF_PERICENTER":17.1672,"MEAN_ANOMALY":193.6599,"EPHEMERIS_TYPE":0,"CLASSIFICATION_TYPE":"U","NORAD_CAT_ID":43162,"ELEMENT_SET_NO":999,"REV_AT_EPOCH":3032,"BSTAR":0,"MEAN_MOTION_DOT":1.17e-6,"MEAN_MOTION_DDOT":0},{"OBJECT_NAME":"AL YAH 3","OBJECT_ID":"2018-012A","EPOCH":"2026-04-26T10:02:59.569728","MEAN_MOTION":1.00272245,"ECCENTRICITY":0.0004283,"INCLINATION":1.4198,"RA_OF_ASC_NODE":83.6801,"ARG_OF_PERICENTER":314.6586,"MEAN_ANOMALY":306.7352,"EPHEMERIS_TYPE":0,"CLASSIFICATION_TYPE":"U","NORAD_CAT_ID":43174,"ELEMENT_SET_NO":999,"REV_AT_EPOCH":3032,"BSTAR":0,"MEAN_MOTION_DOT":-1.66e-6,"MEAN_MOTION_DDOT":0},{"OBJECT_NAME":"SES-14","OBJECT_ID":"2018-012B","EPOCH":"2026-04-26T09:55:07.824000","MEAN_MOTION":1.00272597,"ECCENTRICITY":8.79e-5,"INCLINATION":0.0426,"RA_OF_ASC_NODE":52.9388,"ARG_OF_PERICENTER":336.97,"MEAN_ANOMALY":285.8004,"EPHEMERIS_TYPE":0,"CLASSIFICATION_TYPE":"U","NORAD_CAT_ID":43175,"ELEMENT_SET_NO":999,"REV_AT_EPOCH":650,"BSTAR":0,"MEAN_MOTION_DOT":-2.91e-6,"MEAN_MOTION_DDOT":0},{"OBJECT_NAME":"GOES 17","OBJECT_ID":"2018-022A","EPOCH":"2026-04-26T11:25:52.300128","MEAN_MOTION":1.00272021,"ECCENTRICITY":6.56e-5,"INCLINATION":0.8069,"RA_OF_ASC_NODE":86.4035,"ARG_OF_PERICENTER":273.4258,"MEAN_ANOMALY":296.6261,"EPHEMERIS_TYPE":0,"CLASSIFICATION_TYPE":"U","NORAD_CAT_ID":43226,"ELEMENT_SET_NO":999,"REV_AT_EPOCH":2990,"BSTAR":0,"MEAN_MOTION_DOT":-1.94e-6,"MEAN_MOTION_DDOT":0},{"OBJECT_NAME":"HISPASAT 30W-6","OBJECT_ID":"2018-023A","EPOCH":"2026-04-26T10:00:07.346016","MEAN_MOTION":1.00268387,"ECCENTRICITY":0.0006282,"INCLINATION":0.0229,"RA_OF_ASC_NODE":25.4811,"ARG_OF_PERICENTER":14.5899,"MEAN_ANOMALY":294.381,"EPHEMERIS_TYPE":0,"CLASSIFICATION_TYPE":"U","NORAD_CAT_ID":43228,"ELEMENT_SET_NO":999,"REV_AT_EPOCH":2988,"BSTAR":0,"MEAN_MOTION_DOT":0,"MEAN_MOTION_DDOT":0},{"OBJECT_NAME":"SUPERBIRD-B3","OBJECT_ID":"2018-033A","EPOCH":"2026-04-26T12:00:38.867040","MEAN_MOTION":1.00271394,"ECCENTRICITY":0.0001018,"INCLINATION":0.0139,"RA_OF_ASC_NODE":267.2996,"ARG_OF_PERICENTER":145.9637,"MEAN_ANOMALY":143.399,"EPHEMERIS_TYPE":0,"CLASSIFICATION_TYPE":"U","NORAD_CAT_ID":43271,"ELEMENT_SET_NO":999,"REV_AT_EPOCH":2954,"BSTAR":0,"MEAN_MOTION_DOT":-1.05e-6,"MEAN_MOTION_DDOT":0},{"OBJECT_NAME":"HYLAS 4","OBJECT_ID":"2018-033B","EPOCH":"2026-04-26T11:41:28.304160","MEAN_MOTION":1.00268486,"ECCENTRICITY":0.000178,"INCLINATION":0.0189,"RA_OF_ASC_NODE":117.3191,"ARG_OF_PERICENTER":286.5923,"MEAN_ANOMALY":312.4836,"EPHEMERIS_TYPE":0,"CLASSIFICATION_TYPE":"U","NORAD_CAT_ID":43272,"ELEMENT_SET_NO":999,"REV_AT_EPOCH":2954,"BSTAR":0,"MEAN_MOTION_DOT":0,"MEAN_MOTION_DDOT":0},{"OBJECT_NAME":"IRNSS-1I","OBJECT_ID":"2018-035A","EPOCH":"2026-04-23T23:08:38.874048","MEAN_MOTION":1.00274138,"ECCENTRICITY":0.00183298,"INCLINATION":29.052,"RA_OF_ASC_NODE":75.0297,"ARG_OF_PERICENTER":186.8735,"MEAN_ANOMALY":352.2911,"EPHEMERIS_TYPE":0,"CLASSIFICATION_TYPE":"U","NORAD_CAT_ID":43286,"ELEMENT_SET_NO":999,"REV_AT_EPOCH":2953,"BSTAR":0,"MEAN_MOTION_DOT":8.4e-7,"MEAN_MOTION_DDOT":0},{"OBJECT_NAME":"USA 283","OBJECT_ID":"2018-036A","EPOCH":"2026-04-23T10:54:37.765728","MEAN_MOTION":1.00268619,"ECCENTRICITY":2.4e-5,"INCLINATION":0.0106,"RA_OF_ASC_NODE":233.1643,"ARG_OF_PERICENTER":28.0848,"MEAN_ANOMALY":248.0034,"EPHEMERIS_TYPE":0,"CLASSIFICATION_TYPE":"U","NORAD_CAT_ID":43339,"ELEMENT_SET_NO":999,"REV_AT_EPOCH":2474,"BSTAR":0,"MEAN_MOTION_DOT":0,"MEAN_MOTION_DDOT":0},{"OBJECT_NAME":"COSMOS 2526","OBJECT_ID":"2018-037A","EPOCH":"2026-04-26T07:19:50.102400","MEAN_MOTION":1.00271015,"ECCENTRICITY":7.1e-5,"INCLINATION":0.0215,"RA_OF_ASC_NODE":115.5722,"ARG_OF_PERICENTER":20.4919,"MEAN_ANOMALY":316.2683,"EPHEMERIS_TYPE":0,"CLASSIFICATION_TYPE":"U","NORAD_CAT_ID":43432,"ELEMENT_SET_NO":999,"REV_AT_EPOCH":2943,"BSTAR":0,"MEAN_MOTION_DOT":-3.57e-6,"MEAN_MOTION_DDOT":0},{"OBJECT_NAME":"APSTAR-6C","OBJECT_ID":"2018-041A","EPOCH":"2026-04-26T12:48:36.056160","MEAN_MOTION":1.00274036,"ECCENTRICITY":0.0002096,"INCLINATION":0.0438,"RA_OF_ASC_NODE":13.128,"ARG_OF_PERICENTER":348.4396,"MEAN_ANOMALY":179.1192,"EPHEMERIS_TYPE":0,"CLASSIFICATION_TYPE":"U","NORAD_CAT_ID":43450,"ELEMENT_SET_NO":999,"REV_AT_EPOCH":2929,"BSTAR":0,"MEAN_MOTION_DOT":-3.3e-6,"MEAN_MOTION_DDOT":0},{"OBJECT_NAME":"BANGABANDHUSAT-1","OBJECT_ID":"2018-044A","EPOCH":"2026-04-26T12:25:24.089088","MEAN_MOTION":1.00271977,"ECCENTRICITY":0.0002106,"INCLINATION":0.0398,"RA_OF_ASC_NODE":80.6535,"ARG_OF_PERICENTER":314.52,"MEAN_ANOMALY":124.7947,"EPHEMERIS_TYPE":0,"CLASSIFICATION_TYPE":"U","NORAD_CAT_ID":43463,"ELEMENT_SET_NO":999,"REV_AT_EPOCH":2919,"BSTAR":0,"MEAN_MOTION_DOT":-3.75e-6,"MEAN_MOTION_DDOT":0},{"OBJECT_NAME":"SES-12","OBJECT_ID":"2018-049A","EPOCH":"2026-04-26T12:18:32.247936","MEAN_MOTION":1.00268714,"ECCENTRICITY":0.0001354,"INCLINATION":0.0157,"RA_OF_ASC_NODE":68.6487,"ARG_OF_PERICENTER":246.3083,"MEAN_ANOMALY":179.1999,"EPHEMERIS_TYPE":0,"CLASSIFICATION_TYPE":"U","NORAD_CAT_ID":43488,"ELEMENT_SET_NO":999,"REV_AT_EPOCH":2890,"BSTAR":0,"MEAN_MOTION_DOT":0,"MEAN_MOTION_DDOT":0},{"OBJECT_NAME":"FENGYUN 2H","OBJECT_ID":"2018-050A","EPOCH":"2026-04-26T12:13:55.191648","MEAN_MOTION":1.00274286,"ECCENTRICITY":0.0001719,"INCLINATION":2.9004,"RA_OF_ASC_NODE":79.6515,"ARG_OF_PERICENTER":159.6578,"MEAN_ANOMALY":237.9355,"EPHEMERIS_TYPE":0,"CLASSIFICATION_TYPE":"U","NORAD_CAT_ID":43491,"ELEMENT_SET_NO":999,"REV_AT_EPOCH":2892,"BSTAR":0,"MEAN_MOTION_DOT":-1.39e-6,"MEAN_MOTION_DDOT":0},{"OBJECT_NAME":"TELSTAR 19V","OBJECT_ID":"2018-059A","EPOCH":"2026-04-26T11:33:21.580992","MEAN_MOTION":1.00270559,"ECCENTRICITY":0.0001693,"INCLINATION":0.0193,"RA_OF_ASC_NODE":189.0598,"ARG_OF_PERICENTER":258.3571,"MEAN_ANOMALY":237.3989,"EPHEMERIS_TYPE":0,"CLASSIFICATION_TYPE":"U","NORAD_CAT_ID":43562,"ELEMENT_SET_NO":999,"REV_AT_EPOCH":2862,"BSTAR":0,"MEAN_MOTION_DOT":-2.92e-6,"MEAN_MOTION_DDOT":0},{"OBJECT_NAME":"TELKOM 4 (MERAH PUTIH)","OBJECT_ID":"2018-064A","EPOCH":"2026-04-26T12:22:09.402240","MEAN_MOTION":1.00272385,"ECCENTRICITY":0.0002076,"INCLINATION":0.0111,"RA_OF_ASC_NODE":243.288,"ARG_OF_PERICENTER":183.1093,"MEAN_ANOMALY":81.6549,"EPHEMERIS_TYPE":0,"CLASSIFICATION_TYPE":"U","NORAD_CAT_ID":43587,"ELEMENT_SET_NO":999,"REV_AT_EPOCH":2836,"BSTAR":0,"MEAN_MOTION_DOT":-3.56e-6,"MEAN_MOTION_DDOT":0}]
