ALCOMSAT 1              
1 43039U 17078A   26116.41779169 -.00000198  00000+0  00000+0 0  9999
2 43039   0.0209 181.3985 0002507 192.6942 325.9241  1.00272552 30771
SBIRS GEO-3 (USA 282)   
1 43162U 18009A   26116.45947450  .00000117  00000+0  00000+0 0  9995
2 43162   2.1520   9.6392 0002237  17.1672 193.6599  1.00272089 30324
AL YAH 3                
1 43174U 18012A   26116.41874502 -.00000166  00000+0  00000+0 0  9990
2 43174   1.4198  83.6801 0004283 314.6586 306.7352  1.00272245 30327
SES-14                  
1 43175U 18012B   26116.41328500 -.00000291  00000+0  00000+0 0  9992
2 43175   0.0426  52.9388 0000879 336.9700 285.8004  1.00272597  6502
GOES 17                 
1 43226U 18022A   26116.47629977 -.00000194  00000+0  00000+0 0  9990
2 43226   0.8069  86.4035 0000656 273.4258 296.6261  1.00272021 29903
HISPASAT 30W-6          
1 43228U 18023A   26116.41675169  .00000000  00000+0  00000+0 0  9996
2 43228   0.0229  25.4811 0006282  14.5899 294.3810  1.00268387 29888
SUPERBIRD-B3            
1 43271U 18033A   26116.50044985 -.00000105  00000+0  00000+0 0  9998
2 43271   0.0139 267.2996 0001018 145.9637 143.3990  1.00271394 29544
HYLAS 4                 
1 43272U 18033B   26116.48713315  .00000000  00000+0  00000+0 0  9999
2 43272   0.0189 117.3191 0001780 286.5923 312.4836  1.00268486 29544
IRNSS-1I                
1 43286U 18035A   26113.96433882  .00000084  00000+0  00000+0 0  9996
2 43286  29.0520  75.0297 0018329 186.8735 352.2911  1.00274138 29532
USA 283                 
1 43339U 18036A   26113.45460377  .00000000  00000+0  00000+0 0  9997
2 43339   0.0106 233.1643 0000240  28.0848 248.0034  1.00268619 24740
COSMOS 2526             
1 43432U 18037A   26116.30544100 -.00000357  00000+0  00000+0 0  9992
2 43432   0.0215 115.5722 0000710  20.4919 316.2683  1.00271015 29436
APSTAR-6C               
1 43450U 18041A   26116.53375065 -.00000330  00000+0  00000+0 0  9995
2 43450   0.0438  13.1280 0002096 348.4396 179.1192  1.00274036 29297
BANGABANDHUSAT-1        
1 43463U 18044A   26116.51763992 -.00000375  00000+0  00000+0 0  9999
2 43463   0.0398  80.6535 0002106 314.5200 124.7947  1.00271977 29192
SES-12                  
1 43488U 18049A   26116.51287324  .00000000  00000+0  00000+0 0  9995
2 43488   0.0157  68.6487 0001354 246.3083 179.1999  1.00268714 28903
FENGYUN 2H              
1 43491U 18050A   26116.50966657 -.00000139  00000+0  00000+0 0  9997
2 43491   2.9004  79.6515 0001719 159.6578 237.9355  1.00274286 28925
TELSTAR 19V             
1 43562U 18059A   26116.48149978 -.00000292  00000+0  00000+0 0  9991
2 43562   0.0193 189.0598 0001693 258.3571 237.3989  1.00270559 28623
TELKOM 4 (MERAH PUTIH)  
1 43587U 18064A   26116.51538660 -.00000356  00000+0  00000+0 0  9999
2 43587   0.0111 243.2880 0002076 183.1093  81.6549  1.00272385 28369
